VSP RF A1               
1 59135U 24043AP  26066.03073316  .00000577  00000+0  25199-4 0  9997
2 59135  97.5247 201.5379 0009431 234.6315 125.4042 15.26179596111403
STARLINK-32085          
1 59685U 24086D   26068.96243021  .00000020  00000+0  10264-4 0  9990
2 59685  43.0103  58.3789 0002365 279.7151  80.3434 15.27586939104152
