[{"OBJECT_NAME":"VSP RF A1","OBJECT_ID":"2024-043AP","EPOCH":"2026-03-07T00:44:15.345024","MEAN_MOTION":15.26179596,"ECCENTRICITY":0.00094313,"INCLINATION":97.5247,"RA_OF_ASC_NODE":201.5379,"ARG_OF_PERICENTER":234.6315,"MEAN_ANOMALY":125.4042,"EPHEMERIS_TYPE":0,"CLASSIFICATION_TYPE":"U","NORAD_CAT_ID":59135,"ELEMENT_SET_NO":999,"REV_AT_EPOCH":11140,"BSTAR":2.5198753e-5,"MEAN_MOTION_DOT":5.77e-6,"MEAN_MOTION_DDOT":0},{"OBJECT_NAME":"STARLINK-32085","OBJECT_ID":"2024-086D","EPOCH":"2026-03-09T23:05:53.971008","MEAN_MOTION":15.27586939,"ECCENTRICITY":0.00023655,"INCLINATION":43.0103,"RA_OF_ASC_NODE":58.3789,"ARG_OF_PERICENTER":279.7151,"MEAN_ANOMALY":80.3434,"EPHEMERIS_TYPE":0,"CLASSIFICATION_TYPE":"U","NORAD_CAT_ID":59685,"ELEMENT_SET_NO":999,"REV_AT_EPOCH":10415,"BSTAR":1.0263909e-5,"MEAN_MOTION_DOT":2.0e-7,"MEAN_MOTION_DDOT":0}]
